[{"OBJECT_NAME":"YAOGAN-43 01H","OBJECT_ID":"2024-148H","EPOCH":"2026-03-10T00:13:57.702432","MEAN_MOTION":15.25826805,"ECCENTRICITY":0.000635,"INCLINATION":34.994,"RA_OF_ASC_NODE":64.6147,"ARG_OF_PERICENTER":359.2394,"MEAN_ANOMALY":0.8311,"EPHEMERIS_TYPE":0,"CLASSIFICATION_TYPE":"U","NORAD_CAT_ID":60465,"ELEMENT_SET_NO":999,"REV_AT_EPOCH":8702,"BSTAR":0.00039232254,"MEAN_MOTION_DOT":0.00010268,"MEAN_MOTION_DDOT":0},{"OBJECT_NAME":"STARLINK-34767","OBJECT_ID":"2025-263Y","EPOCH":"2026-03-09T03:36:45.055872","MEAN_MOTION":15.2760283,"ECCENTRICITY":6.635e-5,"INCLINATION":43.0096,"RA_OF_ASC_NODE":353.9748,"ARG_OF_PERICENTER":347.3521,"MEAN_ANOMALY":12.7314,"EPHEMERIS_TYPE":0,"CLASSIFICATION_TYPE":"U","NORAD_CAT_ID":66507,"ELEMENT_SET_NO":999,"REV_AT_EPOCH":1881,"BSTAR":0.0011370344,"MEAN_MOTION_DOT":0.0003118,"MEAN_MOTION_DDOT":0}]
